SL-3 R/B                
1 19046U 88032B   26090.52238770  .00006606  00000+0  30572-3 0  9999
2 19046  97.5212  73.7035 0026642 154.1454 206.1119 15.20152708 55424
SL-16 R/B               
1 19120U 88039B   26090.54185650  .00000093  00000+0  66663-4 0  9994
2 19120  71.0172  22.3403 0023737 303.1022  56.7824 14.19620134961481
COSMOS 1953             
1 19210U 88050A   26090.16108971  .00008988  00000+0  31871-3 0  9999
2 19210  82.5073 136.6473 0012214  55.6435 304.5958 15.28860160 41060
SL-8 R/B                
1 19257U 88053B   26090.35703910  .00000409  00000+0  14091-3 0  9993
2 19257  74.0460  72.5228 0021416 248.9324 218.3039 14.38931350979715
COSMOS 1975             
1 19573U 88093A   26090.46347459  .00008650  00000+0  31112-3 0  9991
2 19573  82.5156  95.8171 0013382  94.4824 265.7944 15.28374642 22736
SL-14 R/B               
1 19574U 88093B   26090.57236421  .00000741  00000+0  82472-4 0  9999
2 19574  82.5342  21.5055 0019886 329.7123 203.1843 14.85683280  4267
SL-16 R/B               
1 19650U 88102B   26090.44853971  .00000044  00000+0  46463-4 0  9992
2 19650  70.9970 105.7134 0015228 329.4256  30.5978 14.16153588929975
INTERCOSMOS 24          
1 20261U 89080A   26090.01095090  .00000612  00000+0  18090-3 0  9996
2 20261  82.6013  90.5155 1186912 243.2874 104.2023 12.59585250669483
SL-14 R/B               
1 20262U 89080C   26090.48078088  .00000487  00000+0  13785-3 0  9992
2 20262  82.5951 159.2034 1230903 134.9651 235.8177 12.50514838662874
DELTA 1 R/B             
1 20323U 89089B   26090.55497846  .00000479  00000+0  12690-3 0  9999
2 20323  97.0689 294.5129 0070363  54.2402 306.5312 14.50681580898901
ARIANE 40 R/B           
1 20443U 90005H   26090.42516231  .00000359  00000+0  12766-3 0  9999
2 20443  98.3038 150.4341 0011100 135.3902 224.8182 14.39884987895932
DELTA 2 R/B(1)          
1 20453U 90008B   26090.23460397  .00074414  00000+0  79855-3 0  9998
2 20453  35.6038  33.1588 0077116 100.9790 259.9633 15.58885002929499
